$$SOE
2460714.500000000, A.D. 2025-Feb-08 00:00:00.0000, 4.290791350128263E+08, 1.535720878898661E+07, -1.252564404195092E+07,
2460721.500000000, A.D. 2025-Feb-15 00:00:00.0000, 4.271159187150432E+08, 2.631386897070150E+07, -1.219172546934187E+07,
2460728.500000000, A.D. 2025-Feb-22 00:00:00.0000, 4.248884224950023E+08, 3.725421183852236E+07, -1.185026348555801E+07,
2460735.500000000, A.D. 2025-Mar-01 00:00:00.0000, 4.223953997547634E+08, 4.817123947761079E+07, -1.150139629278410E+07,
2460742.500000000, A.D. 2025-Mar-08 00:00:00.0000, 4.196358065511251E+08, 5.905783412738115E+07, -1.114527131525302E+07,
2460749.500000000, A.D. 2025-Mar-15 00:00:00.0000, 4.166088101564222E+08, 6.990676592819667E+07, -1.078204515385911E+07,
2460756.500000000, A.D. 2025-Mar-22 00:00:00.0000, 4.133137953123864E+08, 8.071069984643953E+07, -1.041188343440226E+07,
2460763.500000000, A.D. 2025-Mar-29 00:00:00.0000, 4.097503717149339E+08, 9.146220094431765E+07, -1.003496094536748E+07,
2460770.500000000, A.D. 2025-Apr-05 00:00:00.0000, 4.059183830098094E+08, 1.021537411395748E+08, -9.651461837486375E+06,
2460777.500000000, A.D. 2025-Apr-12 00:00:00.0000, 4.018179153273898E+08, 1.127777075643132E+08, -9.261579698693596E+06,
2460784.500000000, A.D. 2025-Apr-19 00:00:00.0000, 3.974493051231468E+08, 1.233264116431423E+08, -8.865517558153421E+06,
2460791.500000000, A.D. 2025-Apr-26 00:00:00.0000, 3.928131465475318E+08, 1.337920986852694E+08, -8.463487859743625E+06,
2460798.500000000, A.D. 2025-May-03 00:00:00.0000, 3.879102984096437E+08, 1.441669580034339E+08, -8.055712412758157E+06,
2460805.500000000, A.D. 2025-May-10 00:00:00.0000, 3.827418907130026E+08, 1.544431335579840E+08, -7.642422320670076E+06,
2460812.500000000, A.D. 2025-May-17 00:00:00.0000, 3.773093307495171E+08, 1.646127350704431E+08, -7.223857893642135E+06,
2460819.500000000, A.D. 2025-May-24 00:00:00.0000, 3.716143088752901E+08, 1.746678495328566E+08, -6.800268564244777E+06,
2460826.500000000, A.D. 2025-May-31 00:00:00.0000, 3.656588043360257E+08, 1.846005533988414E+08, -6.371912818563707E+06,
2460833.500000000, A.D. 2025-Jun-07 00:00:00.0000, 3.594450906889761E+08, 1.944029266301810E+08, -5.939058006843992E+06,
2460840.500000000, A.D. 2025-Jun-14 00:00:00.0000, 3.529757384052977E+08, 2.040670678997774E+08, -5.501979870350465E+06,
2460847.500000000, A.D. 2025-Jun-21 00:00:00.0000, 3.462536158261672E+08, 2.135851076438786E+08, -5.060962162737682E+06,
2460854.500000000, A.D. 2025-Jun-28 00:00:00.0000, 3.392818915585571E+08, 2.229492206830181E+08, -4.616296508674592E+06,
2460861.500000000, A.D. 2025-Jul-05 00:00:00.0000, 3.320640367500798E+08, 2.321516405183786E+08, -4.168282184357718E+06,
2460868.500000000, A.D. 2025-Jul-12 00:00:00.0000, 3.246038260126442E+08, 2.411846744459602E+08, -3.717225776479319E+06,
2460875.500000000, A.D. 2025-Jul-19 00:00:00.0000, 3.169053371506593E+08, 2.500407188568532E+08, -3.263440784299284E+06,
2460882.500000000, A.D. 2025-Jul-26 00:00:00.0000, 3.089729498746253E+08, 2.587122746056031E+08, -2.807247189250052E+06,
2460889.500000000, A.D. 2025-Aug-02 00:00:00.0000, 3.008113435410172E+08, 2.671919624020672E+08, -2.348970997134730E+06,
2460896.500000000, A.D. 2025-Aug-09 00:00:00.0000, 2.924254939216581E+08, 2.754725381414102E+08, -1.888943757361308E+06,
2460903.500000000, A.D. 2025-Aug-16 00:00:00.0000, 2.838206690632473E+08, 2.835469080351552E+08, -1.427502072746038E+06,
2460910.500000000, A.D. 2025-Aug-23 00:00:00.0000, 2.750024245184512E+08, 2.914081434852940E+08, -9.649871268176436E+05,
2460917.500000000, A.D. 2025-Aug-30 00:00:00.0000, 2.659765982738754E+08, 2.990494963412277E+08, -5.017442021007091E+05,
2460924.500000000, A.D. 2025-Sep-06 00:00:00.0000, 2.567493039599025E+08, 3.064644154637087E+08, -3.812197937329113E+04,
2460931.500000000, A.D. 2025-Sep-13 00:00:00.0000, 2.473269206810226E+08, 3.136465620395523E+08, 4.255283309991658E+05,
2460938.500000000, A.D. 2025-Sep-20 00:00:00.0000, 2.377160827636807E+08, 3.205898219334909E+08, 8.888535891360641E+05,
2460945.500000000, A.D. 2025-Sep-27 00:00:00.0000, 2.279236705117826E+08, 3.272883181135530E+08, 1.351499211438239E+06,
2460952.500000000, A.D. 2025-Oct-04 00:00:00.0000, 2.179567999857468E+08, 3.337364236129850E+08, 1.813109768314525E+06,
2460959.500000000, A.D. 2025-Oct-11 00:00:00.0000, 2.078228114697910E+08, 3.399287740142546E+08, 2.273329648224458E+06,
2460966.500000000, A.D. 2025-Oct-18 00:00:00.0000, 1.975292569565701E+08, 3.458602791136098E+08, 2.731803736571357E+06,
2460973.500000000, A.D. 2025-Oct-25 00:00:00.0000, 1.870838868405828E+08, 3.515261337144101E+08, 3.188178094365418E+06,
2460980.500000000, A.D. 2025-Nov-01 00:00:00.0000, 1.764946359176481E+08, 3.569218275067891E+08, 3.642100631014004E+06,
2460987.500000000, A.D. 2025-Nov-08 00:00:00.0000, 1.657696087883757E+08, 3.620431539496035E+08, 4.093221762157232E+06,
2460994.500000000, A.D. 2025-Nov-15 00:00:00.0000, 1.549170648817408E+08, 3.668862180493113E+08, 4.541195030842185E+06,
2461001.500000000, A.D. 2025-Nov-22 00:00:00.0000, 1.439454035741486E+08, 3.714474432157442E+08, 4.985677669736683E+06,
2461008.500000000, A.D. 2025-Nov-29 00:00:00.0000, 1.328631493282465E+08, 3.757235782959918E+08, 5.426331207685441E+06,
2461015.500000000, A.D. 2025-Dec-06 00:00:00.0000, 1.216789346534157E+08, 3.797117046187660E+08, 5.862822314825714E+06,
2461022.500000000, A.D. 2025-Dec-13 00:00:00.0000, 1.104014813971508E+08, 3.834092396546677E+08, 6.294823568269938E+06,
2461029.500000000, A.D. 2025-Dec-20 00:00:00.0000, 9.903958393990500E+07, 3.868139383076435E+08, 6.722013898871630E+06,
2461036.500000000, A.D. 2025-Dec-27 00:00:00.0000, 8.760209330347802E+07, 3.899238944261219E+08, 7.144079026259631E+06,
2461043.500000000, A.D. 2026-Jan-03 00:00:00.0000, 7.609790079471435E+07, 3.927375419201301E+08, 7.560711963158369E+06,
2461050.500000000, A.D. 2026-Jan-10 00:00:00.0000, 6.453592137400740E+07, 3.952536548167584E+08, 7.971613521425635E+06,
2461057.500000000, A.D. 2026-Jan-17 00:00:00.0000, 5.292507706032494E+07, 3.974713461815507E+08, 8.376492789233088E+06,
2461064.500000000, A.D. 2026-Jan-24 00:00:00.0000, 4.127428052789965E+07, 3.993900659538499E+08, 8.775067572577626E+06,
2461071.500000000, A.D. 2026-Jan-31 00:00:00.0000, 2.959241899202032E+07, 4.010095977196747E+08, 9.167064797085911E+06,
2461078.500000000, A.D. 2026-Feb-07 00:00:00.0000, 1.788833851528381E+07, 4.023300544011068E+08, 9.552220858757764E+06,
2461085.500000000, A.D. 2026-Feb-14 00:00:00.0000, 6.170829052359303E+06, 4.033518728884399E+08, 9.930281898422420E+06,
2461092.500000000, A.D. 2026-Feb-21 00:00:00.0000, -5.551389319491667E+06, 4.040758082393450E+08, 1.030100401101890E+07,
2461099.500000000, A.D. 2026-Feb-28 00:00:00.0000, -1.726968001337937E+07, 4.045029286512404E+08, 1.066415358304963E+07,
2461106.500000000, A.D. 2026-Mar-07 00:00:00.0000, -2.897550539590125E+07, 4.046346093091947E+08, 1.101950778737640E+07,
2461113.500000000, A.D. 2026-Mar-14 00:00:00.0000, -4.066044128299709E+07, 4.044725228291042E+08, 1.136685479063541E+07,
2461120.500000000, A.D. 2026-Mar-21 00:00:00.0000, -5.231618865085623E+07, 4.040186292573290E+08, 1.170599374726096E+07,
2461127.500000000, A.D. 2026-Mar-28 00:00:00.0000, -6.393458453769822E+07, 4.032751667201862E+08, 1.203673484896481E+07,
2461134.500000000, A.D. 2026-Apr-04 00:00:00.0000, -7.550761271309195E+07, 4.022446418195367E+08, 1.235889940700233E+07,
2461141.500000000, A.D. 2026-Apr-11 00:00:00.0000, -8.702741382072361E+07, 4.009298194775833E+08, 1.267231991388810E+07,
2461148.500000000, A.D. 2026-Apr-18 00:00:00.0000, -9.848629482016079E+07, 3.993337122879494E+08, 1.297684007071963E+07,
2461155.500000000, A.D. 2026-Apr-25 00:00:00.0000, -1.098767376710819E+08, 3.974595694503092E+08, 1.327231477848229E+07,
2461162.500000000, A.D. 2026-May-02 00:00:00.0000, -1.211914072234057E+08, 3.953108653188483E+08, 1.355861008954042E+07,
2461169.500000000, A.D. 2026-May-09 00:00:00.0000, -1.324231581887514E+08, 3.928912875551655E+08, 1.383560310405526E+07,
2461176.500000000, A.D. 2026-May-16 00:00:00.0000, -1.435650408222862E+08, 3.902047250789701E+08, 1.410318178977570E+07,
2461183.500000000, A.D. 2026-May-23 00:00:00.0000, -1.546103052769964E+08, 3.872552568946928E+08, 1.436124480599487E+07,
2461190.500000000, A.D. 2026-May-30 00:00:00.0000, -1.655524067263272E+08, 3.840471421714691E+08, 1.460970155033162E+07,
2461197.500000000, A.D. 2026-Jun-06 00:00:00.0000, -1.763850115891327E+08, 3.805848083568078E+08, 1.484847219164035E+07,
2461204.500000000, A.D. 2026-Jun-13 00:00:00.0000, -1.871020012116399E+08, 3.768728375690029E+08, 1.507748737093747E+07,
2461211.500000000, A.D. 2026-Jun-20 00:00:00.0000, -1.976974735338978E+08, 3.729159542414891E+08, 1.529668785706760E+07,
2461218.500000000, A.D. 2026-Jun-27 00:00:00.0000, -2.081657444647790E+08, 3.687190137235301E+08, 1.550602428642973E+07,
2461225.500000000, A.D. 2026-Jul-04 00:00:00.0000, -2.185013489927334E+08, 3.642869910994885E+08, 1.570545692484728E+07,
2461232.500000000, A.D. 2026-Jul-11 00:00:00.0000, -2.286990418085158E+08, 3.596249701278961E+08, 1.589495541897309E+07,
2461239.500000000, A.D. 2026-Jul-18 00:00:00.0000, -2.387537973792437E+08, 3.547381323564218E+08, 1.607449853227523E+07,
2461246.500000000, A.D. 2026-Jul-25 00:00:00.0000, -2.486608094824661E+08, 3.496317464428389E+08, 1.624407386501078E+07,
2461253.500000000, A.D. 2026-Aug-01 00:00:00.0000, -2.584154901858636E+08, 3.443111576580738E+08, 1.640367755124895E+07,
2461260.500000000, A.D. 2026-Aug-08 00:00:00.0000, -2.680134680916982E+08, 3.387817775563530E+08, 1.655331391169715E+07,
2461267.500000000, A.D. 2026-Aug-15 00:00:00.0000, -2.774505854652115E+08, 3.330490742804514E+08, 1.669299506244677E+07,
2461274.500000000, A.D. 2026-Aug-22 00:00:00.0000, -2.867228950429674E+08, 3.271185647383779E+08, 1.682274065058087E+07,
2461281.500000000, A.D. 2026-Aug-29 00:00:00.0000, -2.958266588449079E+08, 3.209958072927011E+08, 1.694257781563000E+07,
$$EOE